OBJECT_NAME,OBJECT_ID,EPOCH,MEAN_MOTION,ECCENTRICITY,INCLINATION,RA_OF_ASC_NODE,ARG_OF_PERICENTER,MEAN_ANOMALY,EPHEMERIS_TYPE,CLASSIFICATION_TYPE,NORAD_CAT_ID,ELEMENT_SET_NO,REV_AT_EPOCH,BSTAR,MEAN_MOTION_DOT,MEAN_MOTION_DDOT
ASTRA 2G,2014-089A,2026-07-15T18:38:07.541952,1.00268521,.0004496,0.0529,28.7441,46.1024,166.4941,0,U,40364,999,4225,0,.139E-5,0
FENGYUN 2G,2014-090A,2026-07-15T16:03:00.204768,1.00280690,.0004288,5.7079,72.4671,171.8076,29.3146,0,U,40367,999,4228,0,-.315E-5,0
MUOS-3,2015-002A,2026-07-15T18:25:21.880704,1.00273512,.0053485,4.5742,43.6284,176.9594,333.8278,0,U,40374,999,4187,0,-.141E-5,0
INMARSAT 5-F2,2015-005A,2026-07-15T18:14:22.933824,1.00270825,.0000511,0.0177,36.7651,43.8466,71.5795,0,U,40384,999,4128,0,-.296E-5,0
ABS-3A,2015-010A,2026-07-15T18:29:15.893376,1.00275215,.000151,0.0115,41.8864,31.9755,134.0965,0,U,40424,999,4166,0,-.36E-6,0
EUTELSAT 115 WEST B,2015-010B,2026-07-15T14:32:06.203040,1.00269028,.0000306,0.0044,144.0468,308.1954,304.3093,0,U,40425,999,4166,0,-.35E-6,0
EXPRESS-AM7,2015-012A,2026-07-15T20:24:12.310272,1.00270682,.000275,0.0178,45.8564,75.7719,158.0858,0,U,40505,999,4129,0,.14E-5,0
BEIDOU-3S IGSO-1S,2015-019A,2026-07-02T19:12:21.705408,1.00680073,.00768606,49.1798,295.2769,219.1125,144.2493,0,U,40549,999,4123,0,-.19E-5,0
THOR 7,2015-022A,2026-07-15T18:29:53.333088,1.00273466,.0002277,0.0342,231.3155,244.9372,94.1713,0,U,40613,999,4110,0,-.18E-6,0
TURKMENALEM52E/MONACOSAT,2015-023A,2026-07-15T18:06:38.752416,1.00271442,.0002639,0.0328,84.0566,38.4554,134.7433,0,U,40617,999,4113,0,.94E-6,0
DIRECTV 15,2015-026A,2026-07-14T16:20:59.066880,1.00271323,.00000994,0.0176,71.4979,242.5429,120.8693,0,U,40663,999,4073,0,-.111E-5,0
SKY MEXICO-1,2015-026B,2026-07-15T12:59:41.388000,1.00269990,.0002388,0.0161,41.0040,95.2803,273.2137,0,U,40664,999,4073,0,-.244E-5,0
METEOSAT-11 (MSG-4),2015-034A,2026-07-15T18:32:45.556800,1.00272040,.0002165,3.2704,70.9279,354.2964,155.8297,0,U,40732,999,750,0,.5E-6,0
STAR ONE C4,2015-034B,2026-07-15T18:10:00.854112,1.00269055,.0001304,0.0326,324.7287,132.7772,38.5741,0,U,40733,999,4030,0,-.275E-5,0
WGS F7 (USA 263),2015-036A,2026-07-15T17:37:26.475744,1.00270185,.0000042,0.0139,43.9683,147.8524,181.1085,0,U,40746,999,4015,0,.7E-7,0
INTELSAT 34 (IS-34),2015-039A,2026-07-15T18:14:15.447264,1.00269397,.0000411,0.0103,8.8814,353.7366,149.0502,0,U,40874,999,3992,0,-.296E-5,0
EUTELSAT 8 WEST B,2015-039B,2026-07-15T16:45:13.113216,1.00271845,.000379,0.0640,349.5994,119.5138,67.7350,0,U,40875,999,3994,0,-.76E-6,0
GSAT-6,2015-041A,2026-07-15T18:53:40.502112,1.00273119,.0003007,1.9905,82.2361,29.0799,188.2328,0,U,40880,999,3988,0,-.172E-5,0
INMARSAT 5-F3,2015-042A,2026-07-15T17:38:41.356032,1.00273080,.0000459,0.0182,38.8695,131.6825,207.2814,0,U,40882,999,3985,0,.4E-6,0
MUOS-4,2015-044A,2026-07-15T17:34:38.693856,1.00271287,.0056505,4.3823,42.3974,3.4720,226.3470,0,U,40887,999,3984,0,-.104E-5,0
TJS-1,2015-046A,2026-07-15T19:14:19.608576,1.00271356,.000505,0.3952,84.7456,19.4032,273.1012,0,U,40892,999,3985,0,-.167E-5,0
EXPRESS-AM8,2015-048A,2026-07-15T20:08:46.516128,1.00271610,.0000254,0.0246,297.0541,64.6863,220.1224,0,U,40895,999,3963,0,-.122E-5,0
BEIDOU-3S IGSO-2S,2015-053A,2026-07-15T15:31:15.530592,1.00252741,.0066251,49.1781,258.4418,193.1557,168.0445,0,U,40938,999,3964,0,-.94E-6,0
SKY MUSTER 1 (NBN1A),2015-054A,2026-07-15T19:10:05.015424,1.00270128,.0001601,0.0160,29.3656,89.7202,242.3230,0,U,40940,999,3954,0,0,0
ARSAT 2,2015-054B,2026-07-15T12:58:48.971712,1.00270107,.0001858,0.0346,292.5343,174.6174,299.9294,0,U,40941,999,3958,0,-.235E-5,0
MORELOS 3,2015-056A,2026-07-15T00:51:19.607904,1.00273114,.00004176,3.2097,15.7758,149.4607,27.4052,0,U,40946,999,3956,0,-.53E-6,0
APSTAR-9,2015-059A,2026-07-15T20:53:19.224960,1.00271620,.0003096,0.0262,49.3870,138.0297,201.6383,0,U,40982,999,3940,0,-.276E-5,0
TURKSAT 4B,2015-060A,2026-07-15T20:27:04.533120,1.00275776,.000221,0.0424,245.5129,234.9647,169.9656,0,U,40984,999,3938,0,.104E-5,0
ZHONGXING-2C,2015-063A,2026-07-15T20:42:20.277216,1.00276014,.0008044,0.3454,88.4683,99.2081,160.0609,0,U,41021,999,3926,0,-.335E-5,0
GSAT-15,2015-065A,2026-07-14T08:43:42.352896,1.00267881,.00035804,0.0277,63.4769,29.8725,63.3157,0,U,41028,999,3907,0,0,0
BADR-7 (ARABSAT-6B),2015-065B,2026-07-15T11:46:46.143840,1.00275469,.00051673,0.0159,241.4528,321.5202,293.1007,0,U,41029,999,3905,0,0,0
LAOSAT 1,2015-067A,2026-07-15T19:06:42.836832,1.00264628,.0002202,0.0165,266.9755,158.8558,282.9812,0,U,41034,999,3914,0,0,0
