ASTRA 2G                
1 40364U 14089A   26196.77647618  .00000139  00000+0  00000+0 0  9990
2 40364   0.0529  28.7441 0004496  46.1024 166.4941  1.00268521 42250
FENGYUN 2G              
1 40367U 14090A   26196.66875237 -.00000315  00000+0  00000+0 0  9990
2 40367   5.7079  72.4671 0004288 171.8076  29.3146  1.00280690 42286
MUOS-3                  
1 40374U 15002A   26196.76761436 -.00000141  00000+0  00000+0 0  9995
2 40374   4.5742  43.6284 0053485 176.9594 333.8278  1.00273512 41870
INMARSAT 5-F2           
1 40384U 15005A   26196.75998766 -.00000296  00000+0  00000+0 0  9997
2 40384   0.0177  36.7651 0000511  43.8466  71.5795  1.00270825 41286
ABS-3A                  
1 40424U 15010A   26196.77032284 -.00000036  00000+0  00000+0 0  9996
2 40424   0.0115  41.8864 0001510  31.9755 134.0965  1.00275215 41669
EUTELSAT 115 WEST B     
1 40425U 15010B   26196.60562735 -.00000035  00000+0  00000+0 0  9997
2 40425   0.0044 144.0468 0000306 308.1954 304.3093  1.00269028 41668
EXPRESS-AM7             
1 40505U 15012A   26196.85014248  .00000140  00000+0  00000+0 0  9992
2 40505   0.0178  45.8564 0002750  75.7719 158.0858  1.00270682 41291
BEIDOU-3S IGSO-1S       
1 40549U 15019A   26183.80025122 -.00000190  00000+0  00000+0 0  9997
2 40549  49.1798 295.2769 0076860 219.1125 144.2493  1.00680073 41232
THOR 7                  
1 40613U 15022A   26196.77075617 -.00000018  00000+0  00000+0 0  9996
2 40613   0.0342 231.3155 0002277 244.9372  94.1713  1.00273466 41104
TURKMENALEM52E/MONACOSAT
1 40617U 15023A   26196.75461519  .00000094  00000+0  00000+0 0  9992
2 40617   0.0328  84.0566 0002639  38.4554 134.7433  1.00271442 41136
DIRECTV 15              
1 40663U 15026A   26195.68123920 -.00000111  00000+0  00000+0 0  9999
2 40663   0.0176  71.4979 0000099 242.5429 120.8693  1.00271323 40730
SKY MEXICO-1            
1 40664U 15026B   26196.54145125 -.00000244  00000+0  00000+0 0  9994
2 40664   0.0161  41.0040 0002388  95.2803 273.2137  1.00269990 40732
METEOSAT-11 (MSG-4)     
1 40732U 15034A   26196.77274950  .00000050  00000+0  00000+0 0  9997
2 40732   3.2704  70.9279 0002165 354.2964 155.8297  1.00272040  7500
STAR ONE C4             
1 40733U 15034B   26196.75695433 -.00000275  00000+0  00000+0 0  9999
2 40733   0.0326 324.7287 0001304 132.7772  38.5741  1.00269055 40303
WGS F7 (USA 263)        
1 40746U 15036A   26196.73433421  .00000007  00000+0  00000+0 0  9992
2 40746   0.0139  43.9683 0000042 147.8524 181.1085  1.00270185 40154
INTELSAT 34 (IS-34)     
1 40874U 15039A   26196.75990101 -.00000296  00000+0  00000+0 0  9993
2 40874   0.0103   8.8814 0000411 353.7366 149.0502  1.00269397 39928
EUTELSAT 8 WEST B       
1 40875U 15039B   26196.69806844 -.00000076  00000+0  00000+0 0  9993
2 40875   0.0640 349.5994 0003790 119.5138  67.7350  1.00271845 39947
GSAT-6                  
1 40880U 15041A   26196.78727433 -.00000172  00000+0  00000+0 0  9995
2 40880   1.9905  82.2361 0003007  29.0799 188.2328  1.00273119 39888
INMARSAT 5-F3           
1 40882U 15042A   26196.73520088  .00000040  00000+0  00000+0 0  9993
2 40882   0.0182  38.8695 0000459 131.6825 207.2814  1.00273080 39858
MUOS-4                  
1 40887U 15044A   26196.73239229 -.00000104  00000+0  00000+0 0  9996
2 40887   4.3823  42.3974 0056505   3.4720 226.3470  1.00271287 39841
TJS-1                   
1 40892U 15046A   26196.80161584 -.00000167  00000+0  00000+0 0  9999
2 40892   0.3952  84.7456 0005050  19.4032 273.1012  1.00271356 39853
EXPRESS-AM8             
1 40895U 15048A   26196.83942727 -.00000122  00000+0  00000+0 0  9994
2 40895   0.0246 297.0541 0000254  64.6863 220.1224  1.00271610 39634
BEIDOU-3S IGSO-2S       
1 40938U 15053A   26196.64670753 -.00000094  00000+0  00000+0 0  9992
2 40938  49.1781 258.4418 0066251 193.1557 168.0445  1.00252741 39641
SKY MUSTER 1 (NBN1A)    
1 40940U 15054A   26196.79866916  .00000000  00000+0  00000+0 0  9996
2 40940   0.0160  29.3656 0001601  89.7202 242.3230  1.00270128 39541
ARSAT 2                 
1 40941U 15054B   26196.54084458 -.00000235  00000+0  00000+0 0  9994
2 40941   0.0346 292.5343 0001858 174.6174 299.9294  1.00270107 39580
MORELOS 3               
1 40946U 15056A   26196.03564361 -.00000053  00000+0  00000+0 0  9999
2 40946   3.2097  15.7758 0000417 149.4607  27.4052  1.00273114 39564
APSTAR-9                
1 40982U 15059A   26196.87036140 -.00000276  00000+0  00000+0 0  9990
2 40982   0.0262  49.3870 0003096 138.0297 201.6383  1.00271620 39402
TURKSAT 4B              
1 40984U 15060A   26196.85213580  .00000104  00000+0  00000+0 0  9996
2 40984   0.0424 245.5129 0002210 234.9647 169.9656  1.00275776 39385
ZHONGXING-2C            
1 41021U 15063A   26196.86273469 -.00000335  00000+0  00000+0 0  9992
2 41021   0.3454  88.4683 0008044  99.2081 160.0609  1.00276014 39261
GSAT-15                 
1 41028U 15065A   26195.36368464  .00000000  00000+0  00000+0 0  9993
2 41028   0.0277  63.4769 0003580  29.8725  63.3157  1.00267881 39074
BADR-7 (ARABSAT-6B)     
1 41029U 15065B   26196.49081185  .00000000  00000+0  00000+0 0  9991
2 41029   0.0159 241.4528 0005167 321.5202 293.1007  1.00275469 39056
LAOSAT 1                
1 41034U 15067A   26196.79632913  .00000000  00000+0  00000+0 0  9993
2 41034   0.0165 266.9755 0002202 158.8558 282.9812  1.00264628 39140
